start=new Date('2023-01-29T00:00:00.000Z').valueOf();
sats=[{"INCLINATION":"53.2177","OBJECT_ID":"2022-125AV","CLASSIFICATION_TYPE":"U","TLE_LINE1":"1 54007U 22125AV  23028.84507826  .00001996  00000-0  14346-3 0  9999","APOAPSIS":"540.748","MEAN_MOTION_DDOT":"0.0000000000000","RCS_SIZE":"LARGE","PERIOD":"95.437","SEMIMAJOR_AXIS":"6917.871","TIME_SYSTEM":"UTC","MEAN_ELEMENT_THEORY":"SGP4","REF_FRAME":"TEME","PERIAPSIS":"538.723","NORAD_CAT_ID":"54007","ARG_OF_PERICENTER":"95.3113","MEAN_ANOMALY":"264.8047","RA_OF_ASC_NODE":"272.7723","GP_ID":"223914282","LAUNCH_DATE":"2022-10-05","COUNTRY_CODE":"US","ELEMENT_SET_NO":"999","BSTAR":"0.00014346000000","MEAN_MOTION":"15.08843200","DECAY_DATE":null,"OBJECT_TYPE":"PAYLOAD","REV_AT_EPOCH":"1799","EPOCH":"2023-01-28T20:16:54.761664","OBJECT_NAME":"STARLINK-5132","TLE_LINE2":"2 54007  53.2177 272.7723 0001464  95.3113 264.8047 15.08843200 17998","CENTER_NAME":"EARTH","ECCENTRICITY":"0.00014640","FILE":"3764201","EPHEMERIS_TYPE":"0","MEAN_MOTION_DOT":"0.00001996","SITE":"AFWTR"},{"BSTAR":"0.00000244120000","COUNTRY_CODE":"US","ELEMENT_SET_NO":"999","DECAY_DATE":null,"MEAN_MOTION":"15.08836616","EPHEMERIS_TYPE":"0","FILE":"3764201","ECCENTRICITY":"0.00012700","SITE":"AFWTR","MEAN_MOTION_DOT":"-0.00000249","EPOCH":"2023-01-28T21:48:19.489824","REV_AT_EPOCH":"1814","OBJECT_TYPE":"PAYLOAD","TLE_LINE2":"2 54008  53.2164 262.4767 0001270 100.4029 259.7107 15.08836616 18149","CENTER_NAME":"EARTH","OBJECT_NAME":"STARLINK-5145","TIME_SYSTEM":"UTC","SEMIMAJOR_AXIS":"6917.891","PERIOD":"95.438","RCS_SIZE":"LARGE","CLASSIFICATION_TYPE":"U","OBJECT_ID":"2022-125AW","INCLINATION":"53.2164","MEAN_MOTION_DDOT":"0.0000000000000","APOAPSIS":"540.634","TLE_LINE1":"1 54008U 22125AW  23028.90855891 -.00000249  00000-0  24412-5 0  9993","GP_ID":"223915026","RA_OF_ASC_NODE":"262.4767","LAUNCH_DATE":"2022-10-05","NORAD_CAT_ID":"54008","PERIAPSIS":"538.877","REF_FRAME":"TEME","MEAN_ELEMENT_THEORY":"SGP4","ARG_OF_PERICENTER":"100.4029","MEAN_ANOMALY":"259.7107"},{"GP_ID":"223915750","RA_OF_ASC_NODE":"272.7418","LAUNCH_DATE":"2022-10-05","MEAN_ELEMENT_THEORY":"SGP4","NORAD_CAT_ID":"54009","REF_FRAME":"TEME","PERIAPSIS":"538.894","MEAN_ANOMALY":"272.8147","ARG_OF_PERICENTER":"87.2985","PERIOD":"95.438","RCS_SIZE":"LARGE","TIME_SYSTEM":"UTC","SEMIMAJOR_AXIS":"6917.878","INCLINATION":"53.2157","OBJECT_ID":"2022-125AX","CLASSIFICATION_TYPE":"U","TLE_LINE1":"1 54009U 22125AX  23028.84139242  .00001769  00000-0  12923-3 0  9991","APOAPSIS":"540.592","MEAN_MOTION_DDOT":"0.0000000000000","ECCENTRICITY":"0.00012270","FILE":"3764201","EPHEMERIS_TYPE":"0","SITE":"AFWTR","MEAN_MOTION_DOT":"0.00001769","REV_AT_EPOCH":"1799","OBJECT_TYPE":"PAYLOAD","EPOCH":"2023-01-28T20:11:36.305088","OBJECT_NAME":"STARLINK-5099","CENTER_NAME":"EARTH","TLE_LINE2":"2 54009  53.2157 272.7418 0001227  87.2985 272.8147 15.08840777 17999","ELEMENT_SET_NO":"999","COUNTRY_CODE":"US","BSTAR":"0.00012923000000","DECAY_DATE":null,"MEAN_MOTION":"15.08840777"},{"SEMIMAJOR_AXIS":"6917.880","TIME_SYSTEM":"UTC","RCS_SIZE":"LARGE","PERIOD":"95.438","MEAN_MOTION_DDOT":"0.0000000000000","APOAPSIS":"540.544","TLE_LINE1":"1 54010U 22125AY  23028.90119090  .00002256  00000-0  15980-3 0  9997","CLASSIFICATION_TYPE":"U","OBJECT_ID":"2022-125AY","INCLINATION":"53.2149","LAUNCH_DATE":"2022-10-05","RA_OF_ASC_NODE":"262.4458","GP_ID":"223914532","MEAN_ANOMALY":"272.2950","ARG_OF_PERICENTER":"87.8174","PERIAPSIS":"538.946","REF_FRAME":"TEME","NORAD_CAT_ID":"54010","MEAN_ELEMENT_THEORY":"SGP4","MEAN_MOTION":"15.08840046","DECAY_DATE":null,"BSTAR":"0.00015980000000","ELEMENT_SET_NO":"999","COUNTRY_CODE":"US","MEAN_MOTION_DOT":"0.00002256","SITE":"AFWTR","EPHEMERIS_TYPE":"0","FILE":"3764201","ECCENTRICITY":"0.00011550","TLE_LINE2":"2 54010  53.2149 262.4458 0001155  87.8174 272.2950 15.08840046 18141","CENTER_NAME":"EARTH","OBJECT_NAME":"STARLINK-5127","EPOCH":"2023-01-28T21:37:42.893760","OBJECT_TYPE":"PAYLOAD","REV_AT_EPOCH":"1814"},{"MEAN_MOTION":"15.08845728","DECAY_DATE":null,"BSTAR":"0.00007535700000","COUNTRY_CODE":"US","ELEMENT_SET_NO":"999","TLE_LINE2":"2 54011  53.2164 263.3593 0001114  85.0402 275.0717 15.08845728 18120","CENTER_NAME":"EARTH","OBJECT_NAME":"STARLINK-5124","EPOCH":"2023-01-28T19:46:31.563552","OBJECT_TYPE":"PAYLOAD","REV_AT_EPOCH":"1812","MEAN_MOTION_DOT":"0.00000912","SITE":"AFWTR","FILE":"3764201","EPHEMERIS_TYPE":"0","ECCENTRICITY":"0.00011140","MEAN_MOTION_DDOT":"0.0000000000000","TLE_LINE1":"1 54011U 22125AZ  23028.82397643  .00000912  00000-0  75357-4 0  9993","APOAPSIS":"540.499","OBJECT_ID":"2022-125AZ","CLASSIFICATION_TYPE":"U","INCLINATION":"53.2164","SEMIMAJOR_AXIS":"6917.863","TIME_SYSTEM":"UTC","RCS_SIZE":"LARGE","PERIOD":"95.437","ARG_OF_PERICENTER":"85.0402","MEAN_ANOMALY":"275.0717","PERIAPSIS":"538.957","REF_FRAME":"TEME","NORAD_CAT_ID":"54011","MEAN_ELEMENT_THEORY":"SGP4","LAUNCH_DATE":"2022-10-05","RA_OF_ASC_NODE":"263.3593","GP_ID":"223914780"},{"OBJECT_NAME":"STARLINK-5126","TLE_LINE2":"2 54012  53.2177 262.9038 0001082  93.8155 266.2961 15.08838220 18133","CENTER_NAME":"EARTH","REV_AT_EPOCH":"1813","OBJECT_TYPE":"PAYLOAD","EPOCH":"2023-01-28T20:44:46.479840","SITE":"AFWTR","MEAN_MOTION_DOT":"0.00002218","ECCENTRICITY":"0.00010820","EPHEMERIS_TYPE":"0","FILE":"3764201","DECAY_DATE":null,"MEAN_MOTION":"15.08838220","ELEMENT_SET_NO":"999","COUNTRY_CODE":"US","BSTAR":"0.00015743000000","ARG_OF_PERICENTER":"93.8155","MEAN_ANOMALY":"266.2961","MEAN_ELEMENT_THEORY":"SGP4","NORAD_CAT_ID":"54012","REF_FRAME":"TEME","PERIAPSIS":"539.002","LAUNCH_DATE":"2022-10-05","GP_ID":"223915518","RA_OF_ASC_NODE":"262.9038","APOAPSIS":"540.499","TLE_LINE1":"1 54012U 22125BA  23028.86442685  .00002218  00000-0  15743-3 0  9998","MEAN_MOTION_DDOT":"0.0000000000000","INCLINATION":"53.2177","OBJECT_ID":"2022-125BA","CLASSIFICATION_TYPE":"U","PERIOD":"95.438","RCS_SIZE":"LARGE","TIME_SYSTEM":"UTC","SEMIMAJOR_AXIS":"6917.886"},{"DECAY_DATE":null,"MEAN_MOTION":"15.08843842","ELEMENT_SET_NO":"999","COUNTRY_CODE":"US","BSTAR":"0.00005137800000","OBJECT_NAME":"STARLINK-5098","TLE_LINE2":"2 54013  53.2167 262.9478 0001296  93.0888 267.0253 15.08843842 18132","CENTER_NAME":"EARTH","REV_AT_EPOCH":"1813","OBJECT_TYPE":"PAYLOAD","EPOCH":"2023-01-28T20:55:22.986048","SITE":"AFWTR","MEAN_MOTION_DOT":"0.00000530","ECCENTRICITY":"0.00012960","EPHEMERIS_TYPE":"0","FILE":"3764201","TLE_LINE1":"1 54013U 22125BB  23028.87179382  .00000530  00000-0  51378-4 0  9991","APOAPSIS":"540.630","MEAN_MOTION_DDOT":"0.0000000000000","INCLINATION":"53.2167","OBJECT_ID":"2022-125BB","CLASSIFICATION_TYPE":"U","PERIOD":"95.437","RCS_SIZE":"LARGE","TIME_SYSTEM":"UTC","SEMIMAJOR_AXIS":"6917.869","MEAN_ANOMALY":"267.0253","ARG_OF_PERICENTER":"93.0888","MEAN_ELEMENT_THEORY":"SGP4","NORAD_CAT_ID":"54013","PERIAPSIS":"538.837","REF_FRAME":"TEME","LAUNCH_DATE":"2022-10-05","GP_ID":"223915259","RA_OF_ASC_NODE":"262.9478"},{"COUNTRY_CODE":"US","ELEMENT_SET_NO":"999","BSTAR":"-0.00004284200000","DECAY_DATE":null,"MEAN_MOTION":"15.08839364","ECCENTRICITY":"0.00012370","EPHEMERIS_TYPE":"0","FILE":"3764201","SITE":"AFWTR","MEAN_MOTION_DOT":"-0.00000970","REV_AT_EPOCH":"1813","OBJECT_TYPE":"PAYLOAD","EPOCH":"2023-01-28T20:50:04.802496","OBJECT_NAME":"STARLINK-5116","CENTER_NAME":"EARTH","TLE_LINE2":"2 54014  53.2173 262.9267 0001237  77.7016 282.4114 15.08839364 18134","PERIOD":"95.438","RCS_SIZE":"LARGE","TIME_SYSTEM":"UTC","SEMIMAJOR_AXIS":"6917.882","INCLINATION":"53.2173","OBJECT_ID":"2022-125BC","CLASSIFICATION_TYPE":"U","APOAPSIS":"540.603","TLE_LINE1":"1 54014U 22125BC  23028.86811114 -.00000970  00000-0 -42842-4 0  9993","MEAN_MOTION_DDOT":"0.0000000000000","GP_ID":"223914034","RA_OF_ASC_NODE":"262.9267","LAUNCH_DATE":"2022-10-05","MEAN_ELEMENT_THEORY":"SGP4","NORAD_CAT_ID":"54014","PERIAPSIS":"538.892","REF_FRAME":"TEME","MEAN_ANOMALY":"282.4114","ARG_OF_PERICENTER":"77.7016"},{"INCLINATION":"53.2177","CLASSIFICATION_TYPE":"U","OBJECT_ID":"2022-125BD","TLE_LINE1":"1 54015U 22125BD  23028.92329572 -.00000416  00000-0 -80350-5 0  9995","APOAPSIS":"540.632","MEAN_MOTION_DDOT":"0.0000000000000","RCS_SIZE":"LARGE","PERIOD":"95.437","SEMIMAJOR_AXIS":"6917.874","TIME_SYSTEM":"UTC","MEAN_ELEMENT_THEORY":"SGP4","REF_FRAME":"TEME","PERIAPSIS":"538.846","NORAD_CAT_ID":"54015","MEAN_ANOMALY":"280.9911","ARG_OF_PERICENTER":"79.1227","RA_OF_ASC_NODE":"262.5608","GP_ID":"223914283","LAUNCH_DATE":"2022-10-05","ELEMENT_SET_NO":"999","COUNTRY_CODE":"US","BSTAR":"-0.00000803500000","MEAN_MOTION":"15.08842199","DECAY_DATE":null,"OBJECT_TYPE":"PAYLOAD","REV_AT_EPOCH":"1814","EPOCH":"2023-01-28T22:09:32.750208","OBJECT_NAME":"STARLINK-5055","CENTER_NAME":"EARTH","TLE_LINE2":"2 54015  53.2177 262.5608 0001291  79.1227 280.9911 15.08842199 18143","ECCENTRICITY":"0.00012910","FILE":"3764201","EPHEMERIS_TYPE":"0","MEAN_MOTION_DOT":"-0.00000416","SITE":"AFWTR"},{"MEAN_MOTION":"15.08839090","DECAY_DATE":null,"ELEMENT_SET_NO":"999","COUNTRY_CODE":"US","BSTAR":"0.00004618200000","OBJECT_NAME":"STARLINK-5195","CENTER_NAME":"EARTH","TLE_LINE2":"2 54051  53.2173  43.7477 0001275  82.9600 277.1537 15.08839090 15359","OBJECT_TYPE":"PAYLOAD","REV_AT_EPOCH":"1535","EPOCH":"2023-01-28T18:13:49.023552","MEAN_MOTION_DOT":"0.00000447","SITE":"AFETR","ECCENTRICITY":"0.00012750","EPHEMERIS_TYPE":"0","FILE":"3764201","TLE_LINE1":"1 54051U 22136A   23028.75959518  .00000447  00000-0  46182-4 0  9993","APOAPSIS":"540.630","MEAN_MOTION_DDOT":"0.0000000000000","INCLINATION":"53.2173","OBJECT_ID":"2022-136A","CLASSIFICATION_TYPE":"U","RCS_SIZE":"LARGE","PERIOD":"95.438","SEMIMAJOR_AXIS":"6917.883","TIME_SYSTEM":"UTC","MEAN_ANOMALY":"277.1537","ARG_OF_PERICENTER":"82.9600","MEAN_ELEMENT_THEORY":"SGP4","REF_FRAME":"TEME","PERIAPSIS":"538.866","NORAD_CAT_ID":"54051","LAUNCH_DATE":"2022-10-20","RA_OF_ASC_NODE":"43.7477","GP_ID":"223915263"}];
